ONEWEB-0451             
1 51643U 22012X   24087.60253493  .00000004  00000+0 -22521-4 0  9999
2 51643  87.9244 167.3301 0001969  98.4999 261.6356 13.17649647106788
ONEWEB-0452             
1 51644U 22012Y   24087.60095884  .00000019  00000+0  16102-4 0  9991
2 51644  87.9251 167.3654 0002220  94.3210 265.8176 13.17647880106794
ONEWEB-0455             
1 51645U 22012Z   24087.87924496  .00000557  00000+0  24053-3 0  9991
2 51645  87.5328 140.8747 0014879 247.9204 112.0407 14.22767868112026
ONEWEB-0456             
1 51646U 22012AA  24087.81547875  .00000206  00000+0  55388-3 0  9994
2 51646  87.8991 197.4669 0001595 114.4856 245.6438 13.10376137104376
ONEWEB-0457             
1 51647U 22012AB  24087.56364401 -.00000385  00000+0 -11406-2 0  9991
2 51647  87.8994 197.5314 0002229 104.5311 255.6064 13.10371215103051
ONEWEB-0458             
1 51648U 22012AC  24087.81385635  .00000164  00000+0  43391-3 0  9994
2 51648  87.9001 197.4970 0001806  99.1545 260.9787 13.10376579104349
ONEWEB-0461             
1 51649U 22012AD  24087.77496272 -.00000023  00000+0 -93233-4 0  9997
2 51649  87.9245 167.3028 0002175 105.0741 255.0632 13.17650174108324
ONEWEB-0463             
1 51650U 22012AE  24087.60570749  .00000008  00000+0 -11622-4 0  9997
2 51650  87.9252 167.3796 0002130 103.1055 257.0314 13.17650985106792
ONEWEB-0464             
1 51651U 22012AF  24087.58152830  .00000086  00000+0  21100-3 0  9998
2 51651  87.9000 197.5314 0001424 108.1302 251.9981 13.10376586104336
ONEWEB-0468             
1 51652U 22012AG  24087.58803492  .00000413  00000+0  11479-2 0  9997
2 51652  87.9000 197.5231 0001728 105.5595 254.5723 13.10375930103016
ONEWEB-0473             
1 51653U 22012AH  24087.80246767 -.00000567  00000+0 -16619-2 0  9992
2 51653  87.8998 197.4845 0001723 103.9234 256.2085 13.10375462104346
ONEWEB-0474             
1 51654U 22012AJ  24087.87073596 -.00000644  00000+0 -18805-2 0  9993
2 51654  87.8986 197.4755 0001581 101.5002 258.6303 13.10376204104336
ONEWEB-0475             
1 51655U 22012AK  24087.46489617  .00000096  00000+0  21474-3 0  9990
2 51655  87.9252 167.3865 0001713  91.9441 268.1887 13.17652168106796
ONEWEB-0490             
1 54113U 22138A   24087.59162045  .00000027  00000+0  34211-4 0  9996
2 54113  87.9096 106.5186 0001783  90.5725 269.5612 13.19724289 69786
ONEWEB-0492             
1 54114U 22138B   24087.54107313  .00000087  00000+0  18397-3 0  9991
2 54114  87.9101 106.5274 0001597  90.6101 269.5214 13.19723560 69783
ONEWEB-0495             
1 54115U 22138C   24087.74641973 -.00000034  00000+0 -11817-3 0  9993
2 54115  87.9101 106.4980 0001674  80.6972 279.4350 13.19724668 70668
ONEWEB-0497             
1 54116U 22138D   24087.60741388 -.00000191  00000+0 -51058-3 0  9995
2 54116  87.9097 106.5174 0001789  90.4650 269.6687 13.19725006 69768
ONEWEB-0499             
1 54117U 22138E   24087.51424789  .00000099  00000+0  21511-3 0  9995
2 54117  87.9102 106.5335 0002242  78.8913 281.2472 13.19724339 69762
ONEWEB-0500             
1 54118U 22138F   24087.59320217 -.00000036  00000+0 -12211-3 0  9995
2 54118  87.9099 106.5163 0001814  93.0611 267.0729 13.19727133 69789
ONEWEB-0501             
1 54119U 22138G   24087.54740943  .00001533  00000+0  37968-2 0  9999
2 54119  87.9096 106.5250 0001495  75.8196 284.3103 13.19720149 69750
ONEWEB-0502             
1 54120U 22138H   24087.60900579  .00000030  00000+0  43208-4 0  9998
2 54120  87.9094 106.5029 0001795  81.5981 278.5355 13.19723420 69785
ONEWEB-0503             
1 54121U 22138J   24087.59796199  .00000007  00000+0 -14253-4 0  9991
2 54121  87.9094 106.5123 0002365  89.3061 270.8343 13.19725822 69779
ONEWEB-0504             
1 54122U 22138K   24087.81274624  .00000031  00000+0  44588-4 0  9991
2 54122  87.9097 106.4734 0001975  79.6118 280.5237 13.19727781 70689
ONEWEB-0505             
1 54123U 22138L   24087.58214880 -.00000052  00000+0 -16309-3 0  9998
2 54123  87.9096 106.5155 0001642  68.3752 291.7556 13.19723764 70637
ONEWEB-0506             
1 54124U 22138M   24087.55687715  .00000069  00000+0  13953-3 0  9995
2 54124  87.9095 106.5174 0001762  84.7289 275.4045 13.19723322 70629
ONEWEB-0507             
1 54125U 22138N   24087.57740823 -.00000018  00000+0 -76399-4 0  9998
2 54125  87.9105 106.5276 0001615  86.5617 273.5700 13.19723649 69804
ONEWEB-0508             
1 54126U 22138P   24087.80171213 -.00000007  00000+0 -50867-4 0  9996
2 54126  87.9102 106.4786 0001534  83.0707 277.0600 13.19723847 70685
ONEWEB-0509             
1 54127U 22138Q   24087.54899720  .00000064  00000+0  12799-3 0  9990
2 54127  87.9094 106.5214 0001825  87.3466 272.7875 13.19724838 69758
ONEWEB-0510             
1 54128U 22138R   24087.47324519  .00000014  00000+0  30958-5 0  9996
2 54128  87.9143  75.9558 0001525  92.7571 267.3737 13.20770721 72135
ONEWEB-0511             
1 54129U 22138S   24087.54583799  .00000067  00000+0  13574-3 0  9993
2 54129  87.9094 106.5245 0002227  82.4782 277.6603 13.19725597 69787
ONEWEB-0512             
1 54130U 22138T   24087.61373213  .00000065  00000+0  12941-3 0  9996
2 54130  87.9103 106.5204 0001718  76.0537 284.0787 13.19723152 69764
ONEWEB-0513             
1 54131U 22138U   24087.81197652  .00000113  00000+0  25039-3 0  9996
2 54131  87.9101 106.4773 0001942  71.9362 288.1982 13.19724421 70542
ONEWEB-0514             
1 54132U 22138V   24087.55371542  .00000067  00000+0  13412-3 0  9990
2 54132  87.9097 106.5278 0002006  90.9718 269.1644 13.19727727 69775
ONEWEB-0515             
1 54133U 22138W   24087.53636383  .00000138  00000+0  30638-3 0  9994
2 54133  87.9142  75.9237 0002146 118.4870 241.6480 13.20773664 72164
ONEWEB-0516             
1 54134U 22138X   24087.52843774 -.00000137  00000+0 -37458-3 0  9996
2 54134  87.9104 106.5385 0001816  90.9855 269.1486 13.19725131 69776
ONEWEB-0517             
1 54135U 22138Y   24087.81117578  .00000039  00000+0  64687-4 0  9999
2 54135  87.9096 106.4727 0001893  81.2172 278.9175 13.19724145 70685
ONEWEB-0518             
1 54136U 22138Z   24087.60269399  .00000109  00000+0  24049-3 0  9991
2 54136  87.9100 106.5225 0002042  87.5431 272.5935 13.19724479 69783
ONEWEB-0519             
1 54137U 22138AA  24087.55215736  .00000063  00000+0  12567-3 0  9993
2 54137  87.9095 106.5208 0001951  77.8454 282.2898 13.19725267 70653
ONEWEB-0520             
1 54138U 22138AB  24087.58689214 -.00000003  00000+0 -40788-4 0  9996
2 54138  87.9097 106.5164 0001558  77.5684 282.5623 13.19726822 69770
ONEWEB-0521             
1 54139U 22138AC  24087.54423328  .00000054  00000+0  10274-3 0  9995
2 54139  87.9093 106.5190 0002225  90.2247 269.9141 13.19722973 69716
ONEWEB-0522             
1 54140U 22138AD  24087.75115098  .00000064  00000+0  12704-3 0  9993
2 54140  87.9094 106.4797 0001797  91.0851 269.0488 13.19723604 70656
ONEWEB-0523             
1 54141U 22138AE  24087.90251449  .00000088  00000+0  18532-3 0  9993
2 54141  87.9143  75.8782 0002602 104.5973 255.5449 13.20774076 73084
ONEWEB-0524             
1 54142U 22138AF  24087.89146629  .00000058  00000+0  10999-3 0  9991
2 54142  87.9142  75.8841 0001696 124.1577 235.9718 13.20769865 73081
ONEWEB-0525             
1 54143U 22138AG  24087.54265273 -.00000236  00000+0 -62116-3 0  9999
2 54143  87.9096 106.5278 0001709  82.5169 277.6158 13.19724887 69770
ONEWEB-0526             
1 54144U 22138AH  24087.57581720 -.00000018  00000+0 -77469-4 0  9997
2 54144  87.9096 106.5179 0001760  91.3925 268.7409 13.19727901 69754
ONEWEB-0529             
1 54145U 22138AJ  24087.80643586  .00000022  00000+0  23453-4 0  9990
2 54145  87.9103 106.4807 0001618  84.0195 276.1122 13.19723779 70678
ONEWEB-0531             
1 54146U 22138AK  24087.49848405 -.00000037  00000+0 -12238-3 0  9999
2 54146  87.9141  75.9527 0002416 115.5179 244.6204 13.20769836 72162
ONEWEB-0535             
1 54147U 22138AL  24087.61215233 -.00000316  00000+0 -82099-3 0  9993
2 54147  87.9095 106.5093 0002248  97.7346 262.4042 13.19724340 69792
ONEWEB-0536             
1 54148U 22138AM  24087.48585690  .00000048  00000+0  85743-4 0  9996
2 54148  87.9141  76.0051 0002790 103.9284 256.2159 13.20769759 72152
GSLV R/B                
1 54149U 22138AN  24087.60641046  .00004056  00000+0  41413-3 0  9997
2 54149  87.3829  44.2438 0022790 202.1905 157.8339 14.90195543 77636
ONEWEB-0527             
1 54642U 22166A   24087.40307062 -.00000031  00000+0 -10632-3 0  9991
2 54642  87.9276  45.5620 0001802  84.8786 275.2554 13.21829017 64291
ONEWEB-0528             
1 54643U 22166B   24087.86357683 -.00000018  00000+0 -75284-4 0  9996
2 54643  87.9281  45.4544 0001762  78.7691 281.3641 13.21825154 64815
ONEWEB-0539             
1 54644U 22166C   24087.59704210 -.00001242  00000+0 -30380-2 0  9995
2 54644  87.9281  45.5086 0002083  77.6042 282.5325 13.21830374 64321
ONEWEB-0540             
1 54645U 22166D   24087.59152946  .00000078  00000+0  15823-3 0  9999
2 54645  87.9276  45.5328 0002071  73.9697 286.1665 13.21830238 64312
ONEWEB-0542             
1 54646U 22166E   24087.83360605  .00000034  00000+0  50828-4 0  9997
2 54646  87.9280  45.4617 0002438  78.1206 282.0201 13.21823735 64818
ONEWEB-0545             
1 54647U 22166F   24087.87618269  .00000047  00000+0  81378-4 0  9992
2 54647  87.9271  45.4822 0002265  69.9156 290.2221 13.21827910 64796
ONEWEB-0580             
1 54648U 22166G   24087.39519028  .00000049  00000+0  86828-4 0  9990
2 54648  87.9278  45.5403 0002548  78.7040 281.4381 13.21828427 64304
ONEWEB-0582             
1 54649U 22166H   24087.58915884  .00000122  00000+0  26363-3 0  9991
2 54649  87.9275  45.5417 0001945  71.6248 288.5097 13.21824323 64302
ONEWEB-0583             
1 54650U 22166J   24087.82728671  .00000054  00000+0  98282-4 0  9990
2 54650  87.9272  45.4960 0001602  86.6330 273.4988 13.21823684 64829
